ONEWEB-0158             
1 48054U 21025N   24278.51050500 -.00000093  00000+0 -28844-3 0  9992
2 48054  87.8857  83.6945 0001487  94.2385 265.8914 13.13471392172157
ONEWEB-0157             
1 48055U 21025P   24278.53433740  .00000388  00000+0  10288-2 0  9993
2 48055  87.8858  83.7035 0001576  83.1516 276.9792 13.13469729172093
ONEWEB-0162             
1 48056U 21025Q   24278.49782606 -.00000148  00000+0 -43976-3 0  9994
2 48056  87.8856  83.7049 0001550  90.9206 269.2101 13.13470751172064
ONEWEB-0155             
1 48057U 21025R   24278.51846771  .00000266  00000+0  69442-3 0  9997
2 48057  87.8859  83.7130 0001820  88.8856 271.2481 13.13470108172202
ONEWEB-0149             
1 48058U 21025S   24278.53909580  .00000346  00000+0  91167-3 0  9996
2 48058  87.8857  83.7048 0001379  87.3875 272.7412 13.13471611172012
ONEWEB-0148             
1 48059U 21025T   24278.50417490 -.00000154  00000+0 -45778-3 0  9994
2 48059  87.8858  83.7257 0001268  69.0208 291.1057 13.13469897172136
ONEWEB-0160             
1 48060U 21025U   24278.52002912  .00000343  00000+0  90489-3 0  9994
2 48060  87.8860  83.7188 0001686 123.7588 236.3702 13.13471863172085
ONEWEB-0163             
1 48061U 21025V   24278.50575544 -.00000027  00000+0 -10991-3 0  9990
2 48061  87.8857  83.7108 0001740  82.0557 278.0769 13.13472529172208
